[{"OBJECT_NAME":"OBJECT V","OBJECT_ID":"2023-085V","EPOCH":"2026-03-09T21:44:00.165408","MEAN_MOTION":15.30745852,"ECCENTRICITY":0.00069081,"INCLINATION":97.4843,"RA_OF_ASC_NODE":179.3833,"ARG_OF_PERICENTER":71.0503,"MEAN_ANOMALY":289.1485,"EPHEMERIS_TYPE":0,"CLASSIFICATION_TYPE":"U","NORAD_CAT_ID":57023,"ELEMENT_SET_NO":999,"REV_AT_EPOCH":15149,"BSTAR":0.00067780507,"MEAN_MOTION_DOT":0.00020109,"MEAN_MOTION_DDOT":0},{"OBJECT_NAME":"STARLINK-32928","OBJECT_ID":"2025-075S","EPOCH":"2026-03-09T21:49:10.229088","MEAN_MOTION":15.27605346,"ECCENTRICITY":0.00021424,"INCLINATION":43.0003,"RA_OF_ASC_NODE":269.1595,"ARG_OF_PERICENTER":255.3172,"MEAN_ANOMALY":104.7443,"EPHEMERIS_TYPE":0,"CLASSIFICATION_TYPE":"U","NORAD_CAT_ID":63564,"ELEMENT_SET_NO":999,"REV_AT_EPOCH":5197,"BSTAR":0.0011865793,"MEAN_MOTION_DOT":0.0003256,"MEAN_MOTION_DDOT":0}]
